start=new Date('2022-03-17T00:00:00.000Z').valueOf();
sats=[{"MEAN_MOTION":"15.06393812","CLASSIFICATION_TYPE":"U","TLE_LINE1":"1 48310U 21036AL  22075.63459472 -.00003509  00000-0 -21681-3 0  9994","REF_FRAME":"TEME","MEAN_ELEMENT_THEORY":"SGP4","MEAN_MOTION_DDOT":"0.0000000000000","PERIAPSIS":"546.232","EPOCH":"2022-03-16T15:13:48.983808","OBJECT_TYPE":"PAYLOAD","OBJECT_NAME":"STARLINK-2536","COUNTRY_CODE":"US","TLE_LINE2":"2 48310  53.0536 139.1201 0001445  77.9177 282.1973 15.06393812 49013","OBJECT_ID":"2021-036AL","ARG_OF_PERICENTER":"77.9177","TIME_SYSTEM":"UTC","ECCENTRICITY":"0.00014450","MEAN_MOTION_DOT":"-0.00003509","SEMIMAJOR_AXIS":"6925.368","CENTER_NAME":"EARTH","EPHEMERIS_TYPE":"0","ELEMENT_SET_NO":"999","APOAPSIS":"548.233","GP_ID":"198922131","BSTAR":"-0.00021681000000","FILE":"3362094","SITE":"AFETR","RA_OF_ASC_NODE":"139.1201","INCLINATION":"53.0536","NORAD_CAT_ID":"48310","MEAN_ANOMALY":"282.1973","LAUNCH_DATE":"2021-04-29","PERIOD":"95.593","DECAY_DATE":null,"REV_AT_EPOCH":"4901","RCS_SIZE":"LARGE"},{"MEAN_MOTION_DOT":"-0.00010209","ARG_OF_PERICENTER":"71.4905","ECCENTRICITY":"0.00013630","TIME_SYSTEM":"UTC","SEMIMAJOR_AXIS":"6925.480","OBJECT_ID":"2021-036AM","TLE_LINE2":"2 48311  53.0527 139.7438 0001363  71.4905 288.6232 15.06357016 48990","COUNTRY_CODE":"US","OBJECT_TYPE":"PAYLOAD","OBJECT_NAME":"STARLINK-2534","REF_FRAME":"TEME","CLASSIFICATION_TYPE":"U","TLE_LINE1":"1 48311U 21036AM  22075.49823608 -.00010209  00000-0 -66823-3 0  9997","MEAN_MOTION":"15.06357016","EPOCH":"2022-03-16T11:57:27.597312","PERIAPSIS":"546.401","MEAN_MOTION_DDOT":"0.0000000000000","MEAN_ELEMENT_THEORY":"SGP4","REV_AT_EPOCH":"4899","RCS_SIZE":"LARGE","NORAD_CAT_ID":"48311","INCLINATION":"53.0527","RA_OF_ASC_NODE":"139.7438","SITE":"AFETR","DECAY_DATE":null,"LAUNCH_DATE":"2021-04-29","PERIOD":"95.595","MEAN_ANOMALY":"288.6232","EPHEMERIS_TYPE":"0","ELEMENT_SET_NO":"999","BSTAR":"-0.00066823000000","FILE":"3361689","GP_ID":"198887986","APOAPSIS":"548.289","CENTER_NAME":"EARTH"},{"REV_AT_EPOCH":"4899","RCS_SIZE":"LARGE","INCLINATION":"53.0532","NORAD_CAT_ID":"48312","SITE":"AFETR","RA_OF_ASC_NODE":"139.7587","DECAY_DATE":null,"MEAN_ANOMALY":"308.3985","PERIOD":"95.595","LAUNCH_DATE":"2021-04-29","ELEMENT_SET_NO":"999","EPHEMERIS_TYPE":"0","GP_ID":"198888236","BSTAR":"-0.00033447000000","FILE":"3361689","APOAPSIS":"548.462","CENTER_NAME":"EARTH","TIME_SYSTEM":"UTC","ARG_OF_PERICENTER":"51.7148","ECCENTRICITY":"0.00016040","MEAN_MOTION_DOT":"-0.00005254","SEMIMAJOR_AXIS":"6925.486","OBJECT_ID":"2021-036AN","COUNTRY_CODE":"US","TLE_LINE2":"2 48312  53.0532 139.7587 0001604  51.7148 308.3985 15.06355224 48994","OBJECT_NAME":"STARLINK-2061","OBJECT_TYPE":"PAYLOAD","TLE_LINE1":"1 48312U 21036AN  22075.49455752 -.00005254  00000-0 -33447-3 0  9999","CLASSIFICATION_TYPE":"U","REF_FRAME":"TEME","MEAN_MOTION":"15.06355224","PERIAPSIS":"546.240","EPOCH":"2022-03-16T11:52:09.769728","MEAN_MOTION_DDOT":"0.0000000000000","MEAN_ELEMENT_THEORY":"SGP4"},{"SEMIMAJOR_AXIS":"6925.501","ARG_OF_PERICENTER":"56.4087","ECCENTRICITY":"0.00015710","TIME_SYSTEM":"UTC","MEAN_MOTION_DOT":"-0.00012486","OBJECT_ID":"2021-036AP","OBJECT_TYPE":"PAYLOAD","OBJECT_NAME":"STARLINK-2541","COUNTRY_CODE":"US","TLE_LINE2":"2 48313  53.0522 139.7654 0001571  56.4087 303.7052 15.06350283 49632","MEAN_ELEMENT_THEORY":"SGP4","MEAN_MOTION_DDOT":"0.0000000000000","PERIAPSIS":"546.278","EPOCH":"2022-03-16T11:46:51.012480","MEAN_MOTION":"15.06350283","CLASSIFICATION_TYPE":"U","TLE_LINE1":"1 48313U 21036AP  22075.49086820 -.00012486  00000-0 -82193-3 0  9993","REF_FRAME":"TEME","RCS_SIZE":"LARGE","REV_AT_EPOCH":"4963","MEAN_ANOMALY":"303.7052","PERIOD":"95.595","LAUNCH_DATE":"2021-04-29","DECAY_DATE":null,"SITE":"AFETR","RA_OF_ASC_NODE":"139.7654","NORAD_CAT_ID":"48313","INCLINATION":"53.0522","APOAPSIS":"548.454","GP_ID":"198862084","FILE":"3361422","BSTAR":"-0.00082193000000","ELEMENT_SET_NO":"999","EPHEMERIS_TYPE":"0","CENTER_NAME":"EARTH"},{"RCS_SIZE":"LARGE","REV_AT_EPOCH":"4901","DECAY_DATE":null,"MEAN_ANOMALY":"294.6203","LAUNCH_DATE":"2021-04-29","PERIOD":"95.596","NORAD_CAT_ID":"48314","INCLINATION":"53.0532","SITE":"AFETR","RA_OF_ASC_NODE":"138.9024","GP_ID":"198921632","BSTAR":"-0.00010453000000","FILE":"3362094","APOAPSIS":"548.381","ELEMENT_SET_NO":"999","EPHEMERIS_TYPE":"0","CENTER_NAME":"EARTH","SEMIMAJOR_AXIS":"6925.513","ECCENTRICITY":"0.00014490","ARG_OF_PERICENTER":"65.4937","TIME_SYSTEM":"UTC","MEAN_MOTION_DOT":"-0.00001836","OBJECT_ID":"2021-036AQ","COUNTRY_CODE":"US","TLE_LINE2":"2 48314  53.0532 138.9024 0001449  65.4937 294.6203 15.06346383 49018","OBJECT_NAME":"STARLINK-2549","OBJECT_TYPE":"PAYLOAD","PERIAPSIS":"546.374","EPOCH":"2022-03-16T16:28:09.874560","MEAN_MOTION_DDOT":"0.0000000000000","MEAN_ELEMENT_THEORY":"SGP4","TLE_LINE1":"1 48314U 21036AQ  22075.68622540 -.00001836  00000-0 -10453-3 0  9997","CLASSIFICATION_TYPE":"U","REF_FRAME":"TEME","MEAN_MOTION":"15.06346383"},{"REV_AT_EPOCH":"4898","RCS_SIZE":"LARGE","SITE":"AFETR","RA_OF_ASC_NODE":"139.8105","INCLINATION":"53.0524","NORAD_CAT_ID":"48315","MEAN_ANOMALY":"302.0966","LAUNCH_DATE":"2021-04-29","PERIOD":"95.595","DECAY_DATE":null,"EPHEMERIS_TYPE":"0","ELEMENT_SET_NO":"999","APOAPSIS":"548.429","GP_ID":"198888486","BSTAR":"-0.00050457000000","FILE":"3361689","CENTER_NAME":"EARTH","ARG_OF_PERICENTER":"58.0174","ECCENTRICITY":"0.00015590","TIME_SYSTEM":"UTC","MEAN_MOTION_DOT":"-0.00007780","SEMIMAJOR_AXIS":"6925.484","OBJECT_ID":"2021-036AR","OBJECT_TYPE":"PAYLOAD","OBJECT_NAME":"STARLINK-2506","COUNTRY_CODE":"US","TLE_LINE2":"2 48315  53.0524 139.8105 0001559  58.0174 302.0966 15.06355653 48988","MEAN_MOTION":"15.06355653","TLE_LINE1":"1 48315U 21036AR  22075.48349604 -.00007780  00000-0 -50457-3 0  9995","CLASSIFICATION_TYPE":"U","REF_FRAME":"TEME","MEAN_ELEMENT_THEORY":"SGP4","MEAN_MOTION_DDOT":"0.0000000000000","PERIAPSIS":"546.270","EPOCH":"2022-03-16T11:36:14.057856"},{"ELEMENT_SET_NO":"999","EPHEMERIS_TYPE":"0","FILE":"3361689","BSTAR":"-0.00084631000000","GP_ID":"198888736","APOAPSIS":"548.346","CENTER_NAME":"EARTH","REV_AT_EPOCH":"4898","RCS_SIZE":"LARGE","INCLINATION":"53.0523","NORAD_CAT_ID":"48316","RA_OF_ASC_NODE":"139.8283","SITE":"AFETR","DECAY_DATE":null,"LAUNCH_DATE":"2021-04-29","PERIOD":"95.595","MEAN_ANOMALY":"303.5579","TLE_LINE2":"2 48316  53.0523 139.8283 0001433  56.5547 303.5579 15.06354284 48988","COUNTRY_CODE":"US","OBJECT_NAME":"STARLINK-2507","OBJECT_TYPE":"PAYLOAD","REF_FRAME":"TEME","CLASSIFICATION_TYPE":"U","TLE_LINE1":"1 48316U 21036AS  22075.47981053 -.00012849  00000-0 -84631-3 0  9998","MEAN_MOTION":"15.06354284","EPOCH":"2022-03-16T11:30:55.629792","PERIAPSIS":"546.361","MEAN_MOTION_DDOT":"0.0000000000000","MEAN_ELEMENT_THEORY":"SGP4","MEAN_MOTION_DOT":"-0.00012849","ARG_OF_PERICENTER":"56.5547","TIME_SYSTEM":"UTC","ECCENTRICITY":"0.00014330","SEMIMAJOR_AXIS":"6925.489","OBJECT_ID":"2021-036AS"},{"MEAN_MOTION_DDOT":"0.0000000000000","MEAN_ELEMENT_THEORY":"SGP4","PERIAPSIS":"546.219","EPOCH":"2022-03-16T14:36:40.964544","MEAN_MOTION":"15.06362358","TLE_LINE1":"1 48317U 21036AT  22075.60880746 -.00003063  00000-0 -18701-3 0  9994","CLASSIFICATION_TYPE":"U","REF_FRAME":"TEME","OBJECT_NAME":"STARLINK-2513","OBJECT_TYPE":"PAYLOAD","COUNTRY_CODE":"US","TLE_LINE2":"2 48317  53.0541 139.2527 0001603  61.8367 298.2784 15.06362358 49005","OBJECT_ID":"2021-036AT","SEMIMAJOR_AXIS":"6925.464","ARG_OF_PERICENTER":"61.8367","ECCENTRICITY":"0.00016030","TIME_SYSTEM":"UTC","MEAN_MOTION_DOT":"-0.00003063","CENTER_NAME":"EARTH","APOAPSIS":"548.439","GP_ID":"198921392","BSTAR":"-0.00018701000000","FILE":"3362094","ELEMENT_SET_NO":"999","EPHEMERIS_TYPE":"0","MEAN_ANOMALY":"298.2784","PERIOD":"95.595","LAUNCH_DATE":"2021-04-29","DECAY_DATE":null,"SITE":"AFETR","RA_OF_ASC_NODE":"139.2527","INCLINATION":"53.0541","NORAD_CAT_ID":"48317","RCS_SIZE":"LARGE","REV_AT_EPOCH":"4900"},{"CENTER_NAME":"EARTH","FILE":"3361427","BSTAR":"-0.00031635000000","GP_ID":"198862176","APOAPSIS":"548.328","ELEMENT_SET_NO":"999","EPHEMERIS_TYPE":"0","DECAY_DATE":null,"PERIOD":"95.595","LAUNCH_DATE":"2021-04-29","MEAN_ANOMALY":"295.2699","INCLINATION":"53.0554","NORAD_CAT_ID":"48318","RA_OF_ASC_NODE":"149.8728","SITE":"AFETR","RCS_SIZE":"LARGE","REV_AT_EPOCH":"4948","EPOCH":"2022-03-16T11:13:42.225312","PERIAPSIS":"546.331","MEAN_MOTION_DDOT":"0.0000000000000","MEAN_ELEMENT_THEORY":"SGP4","REF_FRAME":"TEME","CLASSIFICATION_TYPE":"U","TLE_LINE1":"1 48318U 21036AU  22075.46784983 -.00004985  00000-0 -31635-3 0  9990","MEAN_MOTION":"15.06362264","TLE_LINE2":"2 48318  53.0554 149.8728 0001442  64.8439 295.2699 15.06362264 49484","COUNTRY_CODE":"US","OBJECT_TYPE":"PAYLOAD","OBJECT_NAME":"STARLINK-2509","OBJECT_ID":"2021-036AU","SEMIMAJOR_AXIS":"6925.464","MEAN_MOTION_DOT":"-0.00004985","ARG_OF_PERICENTER":"64.8439","ECCENTRICITY":"0.00014420","TIME_SYSTEM":"UTC"},{"REV_AT_EPOCH":"4948","RCS_SIZE":"LARGE","RA_OF_ASC_NODE":"149.8811","SITE":"AFETR","INCLINATION":"53.0545","NORAD_CAT_ID":"48319","LAUNCH_DATE":"2021-04-29","PERIOD":"95.595","MEAN_ANOMALY":"298.9451","DECAY_DATE":null,"EPHEMERIS_TYPE":"0","ELEMENT_SET_NO":"999","APOAPSIS":"548.398","BSTAR":"-0.00057410000000","FILE":"3361427","GP_ID":"198862166","CENTER_NAME":"EARTH","MEAN_MOTION_DOT":"-0.00008814","ARG_OF_PERICENTER":"61.1692","TIME_SYSTEM":"UTC","ECCENTRICITY":"0.00015430","SEMIMAJOR_AXIS":"6925.464","OBJECT_ID":"2021-036AV","OBJECT_NAME":"STARLINK-2512","OBJECT_TYPE":"PAYLOAD","TLE_LINE2":"2 48319  53.0545 149.8811 0001543  61.1692 298.9451 15.06362223 49482","COUNTRY_CODE":"US","MEAN_MOTION":"15.06362223","REF_FRAME":"TEME","CLASSIFICATION_TYPE":"U","TLE_LINE1":"1 48319U 21036AV  22075.46414367 -.00008814  00000-0 -57410-3 0  9991","MEAN_MOTION_DDOT":"0.0000000000000","MEAN_ELEMENT_THEORY":"SGP4","EPOCH":"2022-03-16T11:08:22.013088","PERIAPSIS":"546.261"}];
